CCSDS_OMM_VERS = 2.0
CREATION_DATE  = 
ORIGINATOR     = 

OBJECT_NAME    = STARLINK-36885
OBJECT_ID      = 2026-041K
CENTER_NAME    = EARTH
REF_FRAME      = TEME
TIME_SYSTEM    = UTC
MEAN_ELEMENT_THEORY = SGP/SGP4

EPOCH          = 2026-03-15T22:00:01.999584
MEAN_MOTION    = 15.75192457
ECCENTRICITY   = .00008988
INCLINATION    = 53.1595
RA_OF_ASC_NODE = 30.8756
ARG_OF_PERICENTER = 96.7453
MEAN_ANOMALY   = 273.1923

EPHEMERIS_TYPE = 0
CLASSIFICATION_TYPE = U
NORAD_CAT_ID   = 68049
ELEMENT_SET_NO = 999
REV_AT_EPOCH   = 337
BSTAR          = .61987215E-3
MEAN_MOTION_DOT = .9526E-3
MEAN_MOTION_DDOT = 0

CCSDS_OMM_VERS = 2.0
CREATION_DATE  = 
ORIGINATOR     = 

OBJECT_NAME    = STARLINK-36945
OBJECT_ID      = 2026-041L
CENTER_NAME    = EARTH
REF_FRAME      = TEME
TIME_SYSTEM    = UTC
MEAN_ELEMENT_THEORY = SGP/SGP4

EPOCH          = 2026-03-15T22:00:01.999584
MEAN_MOTION    = 15.80902147
ECCENTRICITY   = .00014377
INCLINATION    = 53.1592
RA_OF_ASC_NODE = 30.8555
ARG_OF_PERICENTER = 72.1418
MEAN_ANOMALY   = 307.5500

EPHEMERIS_TYPE = 0
CLASSIFICATION_TYPE = U
NORAD_CAT_ID   = 68050
ELEMENT_SET_NO = 999
REV_AT_EPOCH   = 337
BSTAR          = -.16884309E-4
MEAN_MOTION_DOT = -.4035E-4
MEAN_MOTION_DDOT = 0

CCSDS_OMM_VERS = 2.0
CREATION_DATE  = 
ORIGINATOR     = 

OBJECT_NAME    = STARLINK-35911
OBJECT_ID      = 2026-041M
CENTER_NAME    = EARTH
REF_FRAME      = TEME
TIME_SYSTEM    = UTC
MEAN_ELEMENT_THEORY = SGP/SGP4

EPOCH          = 2026-03-15T22:00:01.999584
MEAN_MOTION    = 15.80835897
ECCENTRICITY   = .00017219
INCLINATION    = 53.1592
RA_OF_ASC_NODE = 30.8382
ARG_OF_PERICENTER = 53.6823
MEAN_ANOMALY   = 334.5789

EPHEMERIS_TYPE = 0
CLASSIFICATION_TYPE = U
NORAD_CAT_ID   = 68051
ELEMENT_SET_NO = 999
REV_AT_EPOCH   = 333
BSTAR          = .53642467E-3
MEAN_MOTION_DOT = .106305E-2
MEAN_MOTION_DDOT = 0

CCSDS_OMM_VERS = 2.0
CREATION_DATE  = 
ORIGINATOR     = 

OBJECT_NAME    = STARLINK-35808
OBJECT_ID      = 2026-041N
CENTER_NAME    = EARTH
REF_FRAME      = TEME
TIME_SYSTEM    = UTC
MEAN_ELEMENT_THEORY = SGP/SGP4

EPOCH          = 2026-03-15T22:00:01.999584
MEAN_MOTION    = 15.80917534
ECCENTRICITY   = .00017774
INCLINATION    = 53.1592
RA_OF_ASC_NODE = 30.8285
ARG_OF_PERICENTER = 56.0876
MEAN_ANOMALY   = 336.4093

EPHEMERIS_TYPE = 0
CLASSIFICATION_TYPE = U
NORAD_CAT_ID   = 68052
ELEMENT_SET_NO = 999
REV_AT_EPOCH   = 333
BSTAR          = -.51404169E-4
MEAN_MOTION_DOT = -.10855E-3
MEAN_MOTION_DDOT = 0

CCSDS_OMM_VERS = 2.0
CREATION_DATE  = 
ORIGINATOR     = 

OBJECT_NAME    = STARLINK-36919
OBJECT_ID      = 2026-041P
CENTER_NAME    = EARTH
REF_FRAME      = TEME
TIME_SYSTEM    = UTC
MEAN_ELEMENT_THEORY = SGP/SGP4

EPOCH          = 2026-03-15T22:00:01.999584
MEAN_MOTION    = 15.80869494
ECCENTRICITY   = .00014816
INCLINATION    = 53.1593
RA_OF_ASC_NODE = 30.8196
ARG_OF_PERICENTER = 54.9180
MEAN_ANOMALY   = 341.8698

EPHEMERIS_TYPE = 0
CLASSIFICATION_TYPE = U
NORAD_CAT_ID   = 68053
ELEMENT_SET_NO = 999
REV_AT_EPOCH   = 337
BSTAR          = .23269518E-3
MEAN_MOTION_DOT = .45462E-3
MEAN_MOTION_DDOT = 0

CCSDS_OMM_VERS = 2.0
CREATION_DATE  = 
ORIGINATOR     = 

OBJECT_NAME    = STARLINK-36924
OBJECT_ID      = 2026-041Q
CENTER_NAME    = EARTH
REF_FRAME      = TEME
TIME_SYSTEM    = UTC
MEAN_ELEMENT_THEORY = SGP/SGP4

EPOCH          = 2026-03-15T22:00:01.999584
MEAN_MOTION    = 15.75354779
ECCENTRICITY   = .0001145
INCLINATION    = 53.1592
RA_OF_ASC_NODE = 30.8264
ARG_OF_PERICENTER = 109.9524
MEAN_ANOMALY   = 283.8375

EPHEMERIS_TYPE = 0
CLASSIFICATION_TYPE = U
NORAD_CAT_ID   = 68054
ELEMENT_SET_NO = 999
REV_AT_EPOCH   = 337
BSTAR          = -.14689123E-2
MEAN_MOTION_DOT = -.221141E-2
MEAN_MOTION_DDOT = 0

CCSDS_OMM_VERS = 2.0
CREATION_DATE  = 
ORIGINATOR     = 

OBJECT_NAME    = STARLINK-35998
OBJECT_ID      = 2026-041R
CENTER_NAME    = EARTH
REF_FRAME      = TEME
TIME_SYSTEM    = UTC
MEAN_ELEMENT_THEORY = SGP/SGP4

EPOCH          = 2026-03-15T22:00:01.999584
MEAN_MOTION    = 15.80913962
ECCENTRICITY   = .00013414
INCLINATION    = 53.1592
RA_OF_ASC_NODE = 30.8110
ARG_OF_PERICENTER = 100.5189
MEAN_ANOMALY   = 300.5179

EPHEMERIS_TYPE = 0
CLASSIFICATION_TYPE = U
NORAD_CAT_ID   = 68055
ELEMENT_SET_NO = 999
REV_AT_EPOCH   = 333
BSTAR          = -.6076362E-5
MEAN_MOTION_DOT = -.1901E-4
MEAN_MOTION_DDOT = 0

CCSDS_OMM_VERS = 2.0
CREATION_DATE  = 
ORIGINATOR     = 

OBJECT_NAME    = STARLINK-36845
OBJECT_ID      = 2026-041S
CENTER_NAME    = EARTH
REF_FRAME      = TEME
TIME_SYSTEM    = UTC
MEAN_ELEMENT_THEORY = SGP/SGP4

EPOCH          = 2026-03-15T22:00:01.999584
MEAN_MOTION    = 15.80816642
ECCENTRICITY   = .00012822
INCLINATION    = 53.1594
RA_OF_ASC_NODE = 30.7935
ARG_OF_PERICENTER = 51.3545
MEAN_ANOMALY   = 358.2614

EPHEMERIS_TYPE = 0
CLASSIFICATION_TYPE = U
NORAD_CAT_ID   = 68056
ELEMENT_SET_NO = 999
REV_AT_EPOCH   = 337
BSTAR          = .9507221E-3
MEAN_MOTION_DOT = .190645E-2
MEAN_MOTION_DDOT = 0

CCSDS_OMM_VERS = 2.0
CREATION_DATE  = 
ORIGINATOR     = 

OBJECT_NAME    = STARLINK-36954
OBJECT_ID      = 2026-041T
CENTER_NAME    = EARTH
REF_FRAME      = TEME
TIME_SYSTEM    = UTC
MEAN_ELEMENT_THEORY = SGP/SGP4

EPOCH          = 2026-03-15T22:00:01.999584
MEAN_MOTION    = 15.75283403
ECCENTRICITY   = .00007892
INCLINATION    = 53.1592
RA_OF_ASC_NODE = 30.8216
ARG_OF_PERICENTER = 122.6494
MEAN_ANOMALY   = 273.0124

EPHEMERIS_TYPE = 0
CLASSIFICATION_TYPE = U
NORAD_CAT_ID   = 68057
ELEMENT_SET_NO = 999
REV_AT_EPOCH   = 337
BSTAR          = -.4546364E-3
MEAN_MOTION_DOT = -.69888E-3
MEAN_MOTION_DDOT = 0

CCSDS_OMM_VERS = 2.0
CREATION_DATE  = 
ORIGINATOR     = 

OBJECT_NAME    = STARLINK-36899
OBJECT_ID      = 2026-041U
CENTER_NAME    = EARTH
REF_FRAME      = TEME
TIME_SYSTEM    = UTC
MEAN_ELEMENT_THEORY = SGP/SGP4

EPOCH          = 2026-03-15T22:00:01.999584
MEAN_MOTION    = 15.78370567
ECCENTRICITY   = .00008928
INCLINATION    = 53.1596
RA_OF_ASC_NODE = 30.7811
ARG_OF_PERICENTER = 94.8226
MEAN_ANOMALY   = 320.6069

EPHEMERIS_TYPE = 0
CLASSIFICATION_TYPE = U
NORAD_CAT_ID   = 68058
ELEMENT_SET_NO = 999
REV_AT_EPOCH   = 337
BSTAR          = -.12576471E-1
MEAN_MOTION_DOT = -.1926452E-1
MEAN_MOTION_DDOT = 0

CCSDS_OMM_VERS = 2.0
CREATION_DATE  = 
ORIGINATOR     = 

OBJECT_NAME    = STARLINK-36917
OBJECT_ID      = 2026-041V
CENTER_NAME    = EARTH
REF_FRAME      = TEME
TIME_SYSTEM    = UTC
MEAN_ELEMENT_THEORY = SGP/SGP4

EPOCH          = 2026-03-15T22:00:01.999584
MEAN_MOTION    = 15.80865512
ECCENTRICITY   = .00009116
INCLINATION    = 53.1594
RA_OF_ASC_NODE = 30.7670
ARG_OF_PERICENTER = 66.9343
MEAN_ANOMALY   = 355.4800

EPHEMERIS_TYPE = 0
CLASSIFICATION_TYPE = U
NORAD_CAT_ID   = 68059
ELEMENT_SET_NO = 999
REV_AT_EPOCH   = 337
BSTAR          = .27054897E-3
MEAN_MOTION_DOT = .53008E-3
MEAN_MOTION_DDOT = 0

CCSDS_OMM_VERS = 2.0
CREATION_DATE  = 
ORIGINATOR     = 

OBJECT_NAME    = STARLINK-36959
OBJECT_ID      = 2026-041W
CENTER_NAME    = EARTH
REF_FRAME      = TEME
TIME_SYSTEM    = UTC
MEAN_ELEMENT_THEORY = SGP/SGP4

EPOCH          = 2026-03-15T22:00:01.999584
MEAN_MOTION    = 15.81276015
ECCENTRICITY   = .00022055
INCLINATION    = 53.1592
RA_OF_ASC_NODE = 30.7577
ARG_OF_PERICENTER = 69.7449
MEAN_ANOMALY   = 356.8559

EPHEMERIS_TYPE = 0
CLASSIFICATION_TYPE = U
NORAD_CAT_ID   = 68060
ELEMENT_SET_NO = 999
REV_AT_EPOCH   = 337
BSTAR          = -.57946415E-2
MEAN_MOTION_DOT = -.10351E-1
MEAN_MOTION_DDOT = 0

