STARLINK-36885          
1 68049U 26041K   26074.91668981  .00095260  00000+0  61987-3 0  9992
2 68049  53.1595  30.8756 0000898  96.7453 273.1923 15.75192457  3371
STARLINK-36945          
1 68050U 26041L   26074.91668981 -.00004035  00000+0 -16884-4 0  9993
2 68050  53.1592  30.8555 0001437  72.1418 307.5500 15.80902147  3370
STARLINK-35911          
1 68051U 26041M   26074.91668981  .00106305  00000+0  53642-3 0  9997
2 68051  53.1592  30.8382 0001721  53.6823 334.5789 15.80835897  3331
STARLINK-35808          
1 68052U 26041N   26074.91668981 -.00010855  00000+0 -51404-4 0  9999
2 68052  53.1592  30.8285 0001777  56.0876 336.4093 15.80917534  3338
STARLINK-36919          
1 68053U 26041P   26074.91668981  .00045462  00000+0  23270-3 0  9999
2 68053  53.1593  30.8196 0001481  54.9180 341.8698 15.80869494  3374
STARLINK-36924          
1 68054U 26041Q   26074.91668981 -.00221141  00000+0 -14689-2 0  9995
2 68054  53.1592  30.8264 0001145 109.9524 283.8375 15.75354779  3376
STARLINK-35998          
1 68055U 26041R   26074.91668981 -.00001901  00000+0 -60764-5 0  9994
2 68055  53.1592  30.8110 0001341 100.5189 300.5179 15.80913962  3335
STARLINK-36845          
1 68056U 26041S   26074.91668981  .00190645  00000+0  95072-3 0  9995
2 68056  53.1594  30.7935 0001282  51.3545 358.2614 15.80816642  3370
STARLINK-36954          
1 68057U 26041T   26074.91668981 -.00069888  00000+0 -45464-3 0  9992
2 68057  53.1592  30.8216 0000789 122.6494 273.0124 15.75283403  3375
STARLINK-36899          
1 68058U 26041U   26074.91668981 -.01926452  00000+0 -12576-1 0  9999
2 68058  53.1596  30.7811 0000892  94.8226 320.6069 15.78370567  3376
STARLINK-36917          
1 68059U 26041V   26074.91668981  .00053008  00000+0  27055-3 0  9995
2 68059  53.1594  30.7670 0000911  66.9343 355.4800 15.80865512  3371
STARLINK-36959          
1 68060U 26041W   26074.91668981 -.01035100  00000+0 -57946-2 0  9994
2 68060  53.1592  30.7577 0002205  69.7449 356.8559 15.81276015  3374
